{"spkid": "54308046", "covariance": {"labels": ["e", "q", "tp", "node", "peri", "i"], "data": [["1.485273286606254E-14", "-2.090090939510786E-14", "-7.808825324453356E-12", "7.03322264283575E-13", "-3.095919229362683E-12", "-8.680863584199187E-14"], ["-2.090090939510786E-14", "2.943008508150957E-14", "1.088483435983693E-11", "-9.806952776381647E-13", "4.302619266742096E-12", "1.210568953518765E-13"], ["-7.808825324453356E-12", "1.088483435983693E-11", "7.143480608300815E-9", "-5.568416769002845E-10", "3.238827925041413E-9", "1.233014967879523E-10"], ["7.03322264283575E-13", "-9.806952776381647E-13", "-5.568416769002845E-10", "1.43447852898232E-9", "-1.623174177341201E-9", "1.96466096490095E-10"], ["-3.095919229362683E-12", "4.302619266742096E-12", "3.238827925041413E-9", "-1.623174177341201E-9", "2.872963423038896E-9", "-1.441599689419372E-10"], ["-8.680863584199187E-14", "1.210568953518765E-13", "1.233014967879523E-10", "1.96466096490095E-10", "-1.441599689419372E-10", "5.439640171958191E-11"]], "elements": [{"label": "e", "units": null, "value": ".3114136029467653", "title": "eccentricity", "name": "e", "sigma": 1.21871788638973e-07}, {"label": "q", "value": ".9674014668352424", "title": "perihelion distance", "units": "au", "name": "q", "sigma": 1.71551989442004e-07}, {"value": "2458786.375141825097", "title": "time of perihelion passage", "units": "TDB", "name": "tp", "sigma": 8.45191138636747e-05, "label": "tp"}, {"label": "node", "sigma": 3.7874510280429e-05, "name": "om", "units": "deg", "value": "158.886165564424", "title": "longitude of the ascending node"}, {"name": "w", "sigma": 5.36000319313235e-05, "value": "334.2141768744591", "title": "argument of perihelion", "units": "deg", "label": "peri"}, {"label": "i", "units": "deg", "title": "inclination", "value": "7.524275278955029", "name": "i", "sigma": 7.37539163160723e-06}], "epoch": "2458960.5"}, "elements": [{"label": "e", "title": "eccentricity", "value": ".3115804952512299", "units": null, "name": "e", "sigma": "1.2218E-7"}, {"label": "a", "name": "a", "sigma": "6.3065E-9", "title": "semi-major axis", "value": "1.405065484871649", "units": "au"}, {"label": "q", "title": "perihelion distance", "value": ".9672744852349308", "units": "au", "sigma": "1.714E-7", "name": "q"}, {"sigma": "7.378E-6", "name": "i", "units": "deg", "title": "inclination; angle with respect to x-y ecliptic plane", "value": "7.526506829290266", "label": "i"}, {"sigma": "3.7854E-5", "name": "om", "units": "deg", "title": "longitude of the ascending node", "value": "158.8526980816369", "label": "node"}, {"label": "peri", "title": "argument of perihelion", "value": "334.2883334926699", "units": "deg", "name": "w", "sigma": "5.3535E-5"}, {"label": "M", "sigma": "4.7904E-5", "name": "ma", "title": "mean anomaly", "value": "348.7412105298504", "units": "deg"}, {"title": "time of perihelion passage", "value": "2461219.525342013780", "units": "TDB", "name": "tp", "sigma": "8.0924E-5", "label": "tp"}, {"label": "period", "sigma": "4.0957E-6", "name": "per", "value": "608.3356601631086", "title": "sidereal orbital period", "units": "d"}, {"label": "n", "units": "deg/d", "value": ".5917785584088163", "title": "mean motion", "sigma": "3.9842E-9", "name": "n"}, {"units": "au", "title": "aphelion distance", "value": "1.842856484508367", "sigma": "8.2715E-9", "name": "ad", "label": "Q"}], "epoch": "2461200.5"}